{
    "links": {
        "self": "http://www.neowsapp.com/rest/v1/neo/3592305?api_key=iIulBulltgU6a56xZRHN4H3l9WmuAYTsLGpBGhQ2"
    },
    "id": "3592305",
    "neo_reference_id": "3592305",
    "name": "(2012 AM10)",
    "designation": "2012 AM10",
    "nasa_jpl_url": "http://ssd.jpl.nasa.gov/sbdb.cgi?sstr=3592305",
    "absolute_magnitude_h": 22.8,
    "estimated_diameter": {
        "kilometers": {
            "estimated_diameter_min": 0.0732073989,
            "estimated_diameter_max": 0.1636967205
        },
        "meters": {
            "estimated_diameter_min": 73.2073989347,
            "estimated_diameter_max": 163.696720474
        },
        "miles": {
            "estimated_diameter_min": 0.0454889547,
            "estimated_diameter_max": 0.1017163949
        },
        "feet": {
            "estimated_diameter_min": 240.181762721,
            "estimated_diameter_max": 537.0627483999
        }
    },
    "is_potentially_hazardous_asteroid": false,
    "close_approach_data": [
        {
            "close_approach_date": "2012-01-02",
            "close_approach_date_full": "2012-Jan-02 23:08",
            "epoch_date_close_approach": 1325545680000,
            "relative_velocity": {
                "kilometers_per_second": "16.4454418122",
                "kilometers_per_hour": "59203.5905237584",
                "miles_per_hour": "36786.8087896097"
            },
            "miss_distance": {
                "astronomical": "0.071507362",
                "lunar": "27.816363818",
                "kilometers": "10697349.04451894",
                "miles": "6647024.469643772"
            },
            "orbiting_body": "Earth"
        },
        {
            "close_approach_date": "2013-07-17",
            "close_approach_date_full": "2013-Jul-17 11:52",
            "epoch_date_close_approach": 1374061920000,
            "relative_velocity": {
                "kilometers_per_second": "16.3101800071",
                "kilometers_per_hour": "58716.6480254534",
                "miles_per_hour": "36484.2416578158"
            },
            "miss_distance": {
                "astronomical": "0.0668641744",
                "lunar": "26.0101638416",
                "kilometers": "10002738.069548528",
                "miles": "6215413.2238765664"
            },
            "orbiting_body": "Earth"
        }
    ],
    "orbital_data": {
        "orbit_id": "7",
        "orbit_determination_date": "2017-04-06 08:51:30",
        "first_observation_date": "2012-01-10",
        "last_observation_date": "2012-01-25",
        "data_arc_in_days": 15,
        "observations_used": 39,
        "orbit_uncertainty": "8",
        "minimum_orbit_intersection": ".0200386",
        "jupiter_tisserand_invariant": "4.410",
        "epoch_osculation": "2455940.5",
        "eccentricity": ".5153244845854005",
        "semi_major_axis": "1.489573050268023",
        "inclination": "2.08013497809836",
        "ascending_node_longitude": "331.7669456511424",
        "orbital_period": "664.0352531882893",
        "perihelion_distance": ".7219595858863513",
        "perihelion_argument": "48.31439383127999",
        "aphelion_distance": "2.257186514649695",
        "perihelion_time": "2455880.023147507420",
        "mean_anomaly": "32.78691423805382",
        "mean_motion": ".5421398913258011",
        "equinox": "J2000",
        "orbit_class": {
            "orbit_class_type": "APO",
            "orbit_class_description": "Near-Earth asteroid orbits which cross the Earth’s orbit similar to that of 1862 Apollo",
            "orbit_class_range": "a (semi-major axis) > 1.0 AU; q (perihelion) < 1.017 AU"
        }
    },
    "is_sentry_object": false
}